YAMAL 401               
1 40345U 14082A   26192.86793814 -.00000223  00000+0  00000+0 0  9993
2 40345   0.0368 210.1789 0000276  89.4116  32.5659  1.00268336 42169
ASTRA 2G                
1 40364U 14089A   26192.92961583  .00000154  00000+0  00000+0 0  9990
2 40364   0.0480  17.7667 0004241  60.2046 214.7340  1.00273638 42214
FENGYUN 2G              
1 40367U 14090A   26192.91064514 -.00000300  00000+0  00000+0 0  9996
2 40367   5.6975  72.5150 0004301 152.1387 132.2906  1.00261513 42243
MUOS-3                  
1 40374U 15002A   26192.84699718 -.00000129  00000+0  00000+0 0  9999
2 40374   4.5670  43.6179 0053285 177.3851 358.1293  1.00269928 41831
INMARSAT 5-F2           
1 40384U 15005A   26192.69648671 -.00000281  00000+0  00000+0 0  9997
2 40384   0.0181  27.6567 0000397  76.2060  21.4670  1.00271260 41244
ABS-3A                  
1 40424U 15010A   26192.63564418 -.00000022  00000+0  00000+0 0  9991
2 40424   0.0137  33.0917 0001702  26.7688  95.5236  1.00269802 41628
EUTELSAT 115 WEST B     
1 40425U 15010B   26192.36937624 -.00000018  00000+0  00000+0 0  9990
2 40425   0.0105 116.1654 0000172 350.3010 200.8914  1.00270364 41629
EXPRESS-AM7             
1 40505U 15012A   26192.92961583  .00000000  00000+0  00000+0 0  9994
2 40505   0.0263  40.3512 0002679  81.0999 183.0446  1.00268840 41259
BEIDOU-3S IGSO-1S       
1 40549U 15019A   26183.80025122 -.00000190  00000+0  00000+0 0  9997
2 40549  49.1798 295.2769 0076860 219.1125 144.2493  1.00680073 41232
THOR 7                  
1 40613U 15022A   26192.84994385 -.00000004  00000+0  00000+0 0  9997
2 40613   0.0169  87.0913 0002302  26.5245 121.4506  1.00271050 41067
TURKMENALEM52E/MONACOSAT
1 40617U 15023A   26192.90738978  .00000108  00000+0  00000+0 0  9997
2 40617   0.0222  79.1496 0002574  39.3322 189.9954  1.00269781 41095
DIRECTV 15              
1 40663U 15026A   26192.82972929 -.00000098  00000+0  00000+0 0  9997
2 40663   0.0189  71.1042 0000207 222.9242 191.5327  1.00270532 40716
SKY MEXICO-1            
1 40664U 15026B   26192.83449598 -.00000230  00000+0  00000+0 0  9998
2 40664   0.0136   5.7441 0002306 128.8513  16.7610  1.00270928 40703
METEOSAT-11 (MSG-4)     
1 40732U 15034A   26192.85193720  .00000062  00000+0  00000+0 0  9990
2 40732   3.2612  70.9557 0002248 352.9573 181.7867  1.00270818  7467
STAR ONE C4             
1 40733U 15034B   26192.96495909 -.00000261  00000+0  00000+0 0  9999
2 40733   0.0245 343.0579 0001317 106.6116 117.5823  1.00270204 40269
WGS F7 (USA 263)        
1 40746U 15036A   26192.59489172  .00000000  00000+0  00000+0 0  9999
2 40746   0.0462  70.1813 0000739 135.2251 113.2409  1.00271951 40115
INTELSAT 34 (IS-34)     
1 40874U 15039A   26192.83908934 -.00000281  00000+0  00000+0 0  9995
2 40874   0.0109   3.9323 0000383 341.4714 190.9193  1.00271989 39880
EUTELSAT 8 WEST B       
1 40875U 15039B   26192.84847051 -.00000061  00000+0  00000+0 0  9995
2 40875   0.0658 341.6032 0003891 123.0797 122.5133  1.00271613 39903
GSAT-6                  
1 40880U 15041A   26192.86646479 -.00000158  00000+0  00000+0 0  9994
2 40880   1.9811  82.2891 0002996  25.4078 216.4698  1.00273576 39845
INMARSAT 5-F3           
1 40882U 15042A   26192.74305605  .00000055  00000+0  00000+0 0  9992
2 40882   0.0184  33.2673 0000474 145.0710 198.3932  1.00272607 39815
MUOS-4                  
1 40887U 15044A   26192.85091310 -.00000092  00000+0  00000+0 0  9998
2 40887   4.3744  42.3701 0056569   3.3540 265.3423  1.00271142 39807
TJS-1                   
1 40892U 15046A   26192.73820269 -.00000151  00000+0  00000+0 0  9992
2 40892   0.3839  84.7678 0004945  17.2857 248.3583  1.00273086 39811
EXPRESS-AM8             
1 40895U 15048A   26192.98990764 -.00000110  00000+0  00000+0 0  9997
2 40895   0.0146 314.8532 0000560 299.9218  17.4714  1.00261755 39593
BEIDOU-3S IGSO-2S       
1 40938U 15053A   26192.65474799 -.00000091  00000+0  00000+0 0  9998
2 40938  49.1834 258.4907 0066347 193.2506 167.1648  1.00253704 39605
SKY MUSTER 1 (NBN1A)    
1 40940U 15054A   26191.16696767  .00000000  00000+0  00000+0 0  9997
2 40940   0.0185  10.4231 0001543  99.4198  18.6038  1.00270506 39499
ARSAT 2                 
1 40941U 15054B   26192.83406265 -.00000221  00000+0  00000+0 0  9991
2 40941   0.0431 283.9084 0001838 180.0214  45.0711  1.00271010 39550
MORELOS 3               
1 40946U 15056A   26192.68513333 -.00000040  00000+0  00000+0 0  9995
2 40946   3.2070  15.6975 0000305 117.2850 290.1571  1.00272417 39531
APSTAR-9                
1 40982U 15059A   26192.87816485 -.00000262  00000+0  00000+0 0  9999
2 40982   0.0181  31.0881 0003008 156.7775 200.0561  1.00272852 39367
TURKSAT 4B              
1 40984U 15060A   26192.92405799  .00000119  00000+0  00000+0 0  9991
2 40984   0.0186  31.3941 0002358  87.9422 193.1069  1.00271157 39345
ZHONGXING-2C            
1 41021U 15063A   26193.08440927 -.00000321  00000+0  00000+0 0  9993
2 41021   0.3353  88.6876 0008059 101.0024 234.1109  1.00273144 39225
GSAT-15                 
1 41028U 15065A   26192.86863147  .00000000  00000+0  00000+0 0  9993
2 41028   0.0227  41.6751 0003568  50.5331 243.7818  1.00269275 39042
BADR-7 (ARABSAT-6B)     
1 41029U 15065B   26192.85600355  .00000149  00000+0  00000+0 0  9997
2 41029   0.0241 198.2557 0004783   5.6004  60.0417  1.00272390 39014
