OBJECT_NAME,OBJECT_ID,EPOCH,MEAN_MOTION,ECCENTRICITY,INCLINATION,RA_OF_ASC_NODE,ARG_OF_PERICENTER,MEAN_ANOMALY,EPHEMERIS_TYPE,CLASSIFICATION_TYPE,NORAD_CAT_ID,ELEMENT_SET_NO,REV_AT_EPOCH,BSTAR,MEAN_MOTION_DOT,MEAN_MOTION_DDOT
YAMAL 401,2014-082A,2026-07-11T20:49:49.855296,1.00268336,.00002768,0.0368,210.1789,89.4116,32.5659,0,U,40345,999,4216,0,-.223E-5,0
ASTRA 2G,2014-089A,2026-07-11T22:18:38.807712,1.00273638,.0004241,0.0480,17.7667,60.2046,214.7340,0,U,40364,999,4221,0,.154E-5,0
FENGYUN 2G,2014-090A,2026-07-11T21:51:19.740096,1.00261513,.00043013,5.6975,72.5150,152.1387,132.2906,0,U,40367,999,4224,0,-.3E-5,0
MUOS-3,2015-002A,2026-07-11T20:19:40.556352,1.00269928,.00532851,4.5670,43.6179,177.3851,358.1293,0,U,40374,999,4183,0,-.129E-5,0
INMARSAT 5-F2,2015-005A,2026-07-11T16:42:56.451744,1.00271260,.00003975,0.0181,27.6567,76.2060,21.4670,0,U,40384,999,4124,0,-.281E-5,0
ABS-3A,2015-010A,2026-07-11T15:15:19.657152,1.00269802,.00017024,0.0137,33.0917,26.7688,95.5236,0,U,40424,999,4162,0,-.22E-6,0
EUTELSAT 115 WEST B,2015-010B,2026-07-11T08:51:54.107136,1.00270364,.00001726,0.0105,116.1654,350.3010,200.8914,0,U,40425,999,4162,0,-.18E-6,0
EXPRESS-AM7,2015-012A,2026-07-11T22:18:38.807712,1.00268840,.00026799,0.0263,40.3512,81.0999,183.0446,0,U,40505,999,4125,0,0,0
BEIDOU-3S IGSO-1S,2015-019A,2026-07-02T19:12:21.705408,1.00680073,.00768606,49.1798,295.2769,219.1125,144.2493,0,U,40549,999,4123,0,-.19E-5,0
THOR 7,2015-022A,2026-07-11T20:23:55.148640,1.00271050,.0002302,0.0169,87.0913,26.5245,121.4506,0,U,40613,999,4106,0,-.4E-7,0
TURKMENALEM52E/MONACOSAT,2015-023A,2026-07-11T21:46:38.476992,1.00269781,.00025748,0.0222,79.1496,39.3322,189.9954,0,U,40617,999,4109,0,.108E-5,0
DIRECTV 15,2015-026A,2026-07-11T19:54:48.610656,1.00270532,.00002074,0.0189,71.1042,222.9242,191.5327,0,U,40663,999,4071,0,-.98E-6,0
SKY MEXICO-1,2015-026B,2026-07-11T20:01:40.452672,1.00270928,.00023069,0.0136,5.7441,128.8513,16.7610,0,U,40664,999,4070,0,-.23E-5,0
METEOSAT-11 (MSG-4),2015-034A,2026-07-11T20:26:47.374080,1.00270818,.00022488,3.2612,70.9557,352.9573,181.7867,0,U,40732,999,746,0,.62E-6,0
STAR ONE C4,2015-034B,2026-07-11T23:09:32.465376,1.00270204,.00013177,0.0245,343.0579,106.6116,117.5823,0,U,40733,999,4026,0,-.261E-5,0
WGS F7 (USA 263),2015-036A,2026-07-11T14:16:38.644608,1.00271951,.0000739,0.0462,70.1813,135.2251,113.2409,0,U,40746,999,4011,0,0,0
INTELSAT 34 (IS-34),2015-039A,2026-07-11T20:08:17.318976,1.00271989,.0000383,0.0109,3.9323,341.4714,190.9193,0,U,40874,999,3988,0,-.281E-5,0
EUTELSAT 8 WEST B,2015-039B,2026-07-11T20:21:47.852064,1.00271613,.00038917,0.0658,341.6032,123.0797,122.5133,0,U,40875,999,3990,0,-.61E-6,0
GSAT-6,2015-041A,2026-07-11T20:47:42.557856,1.00273576,.00029962,1.9811,82.2891,25.4078,216.4698,0,U,40880,999,3984,0,-.158E-5,0
INMARSAT 5-F3,2015-042A,2026-07-11T17:50:00.042720,1.00272607,.00004741,0.0184,33.2673,145.0710,198.3932,0,U,40882,999,3981,0,.55E-6,0
MUOS-4,2015-044A,2026-07-11T20:25:18.891840,1.00271142,.00565695,4.3744,42.3701,3.3540,265.3423,0,U,40887,999,3980,0,-.92E-6,0
TJS-1,2015-046A,2026-07-11T17:43:00.712416,1.00273086,.00049457,0.3839,84.7678,17.2857,248.3583,0,U,40892,999,3981,0,-.151E-5,0
EXPRESS-AM8,2015-048A,2026-07-11T23:45:28.020096,1.00261755,.000056,0.0146,314.8532,299.9218,17.4714,0,U,40895,999,3959,0,-.11E-5,0
BEIDOU-3S IGSO-2S,2015-053A,2026-07-11T15:42:50.226336,1.00253704,.00663477,49.1834,258.4907,193.2506,167.1648,0,U,40938,999,3960,0,-.91E-6,0
SKY MUSTER 1 (NBN1A),2015-054A,2026-07-10T04:00:26.006688,1.00270506,.0001543,0.0185,10.4231,99.4198,18.6038,0,U,40940,999,3949,0,0,0
ARSAT 2,2015-054B,2026-07-11T20:01:03.012960,1.00271010,.0001838,0.0431,283.9084,180.0214,45.0711,0,U,40941,999,3955,0,-.221E-5,0
MORELOS 3,2015-056A,2026-07-11T16:26:35.519712,1.00272417,.00003059,3.2070,15.6975,117.2850,290.1571,0,U,40946,999,3953,0,-.4E-6,0
APSTAR-9,2015-059A,2026-07-11T21:04:33.443040,1.00272852,.00030088,0.0181,31.0881,156.7775,200.0561,0,U,40982,999,3936,0,-.262E-5,0
TURKSAT 4B,2015-060A,2026-07-11T22:10:38.610336,1.00271157,.00023589,0.0186,31.3941,87.9422,193.1069,0,U,40984,999,3934,0,.119E-5,0
ZHONGXING-2C,2015-063A,2026-07-12T02:01:32.960928,1.00273144,.0008059,0.3353,88.6876,101.0024,234.1109,0,U,41021,999,3922,0,-.321E-5,0
GSAT-15,2015-065A,2026-07-11T20:50:49.759008,1.00269275,.0003568,0.0227,41.6751,50.5331,243.7818,0,U,41028,999,3904,0,0,0
BADR-7 (ARABSAT-6B),2015-065B,2026-07-11T20:32:38.706720,1.00272390,.00047835,0.0241,198.2557,5.6004,60.0417,0,U,41029,999,3901,0,.149E-5,0
